STARLINK-30129
1 56689U 23067B   26091.21574191  .00018735  00000+0  13929-2 0  9999
2 56689  43.0052 152.4529 0003126 130.1386 229.9730 15.02679844159049
STARLINK-30127
1 56699U 23067M   26092.85444189  .00019546  00000+0  14536-2 0  9990
2 56699  42.9970 143.2775 0001536 251.7070 108.3605 15.02648962159296
